{
  "type": "FeatureCollection",
  "features": [
    {
      "type": "Feature",
      "properties": {
        "norad_id": 32086,
        "name": "FENGYUN 1C DEB",
        "group": "fengyun-1c-debris",
        "lat": 41.13019466663995,
        "lon": 34.530751482833956,
        "alt_km": 996.3435171997162,
        "timestamp": "2025-12-13T20:38:51.290411+00:00",
        "meta_object_name": "FENGYUN 1C DEB",
        "meta_object_id": "1999-025CQC",
        "meta_epoch": "2025-12-08T22:54:23.642784",
        "meta_mean_motion": 13.68864745,
        "meta_eccentricity": 0.0300639,
        "meta_inclination": 99.2693,
        "meta_ra_of_asc_node": 38.0068,
        "meta_arg_of_pericenter": 145.3801,
        "meta_mean_anomaly": 216.7328,
        "meta_ephemeris_type": 0,
        "meta_classification_type": "U",
        "meta_norad_cat_id": 32086,
        "meta_element_set_no": 999,
        "meta_rev_at_epoch": 61729,
        "meta_bstar": 0.0024856,
        "meta_mean_motion_dot": 2.899e-05,
        "meta_mean_motion_ddot": 0,
        "tle_line1": "1 32086U 99025CQC 25342.95444031  .00002899  00000+0  24856-2 0  9994",
        "tle_line2": "2 32086  99.2693  38.0068 0300639 145.3801 216.7328 13.68864745617293"
      },
      "geometry": {
        "type": "Point",
        "coordinates": [
          34.530751482833956,
          41.13019466663995
        ]
      }
    },
    {
      "type": "Feature",
      "properties": {
        "norad_id": 32088,
        "name": "FENGYUN 1C DEB",
        "group": "fengyun-1c-debris",
        "lat": -7.525345800530058,
        "lon": -144.27133223105017,
        "alt_km": 820.6668883305138,
        "timestamp": "2025-12-13T20:38:51.290422+00:00",
        "meta_object_name": "FENGYUN 1C DEB",
        "meta_object_id": "1999-025CQE",
        "meta_epoch": "2025-12-10T09:20:21.764256",
        "meta_mean_motion": 13.25167395,
        "meta_eccentricity": 0.04614879,
        "meta_inclination": 102.3999,
        "meta_ra_of_asc_node": 209.9224,
        "meta_arg_of_pericenter": 2.0508,
        "meta_mean_anomaly": 358.2365,
        "meta_ephemeris_type": 0,
        "meta_classification_type": "U",
        "meta_norad_cat_id": 32088,
        "meta_element_set_no": 999,
        "meta_rev_at_epoch": 59813,
        "meta_bstar": 0.0045517197,
        "meta_mean_motion_dot": 3.447e-05,
        "meta_mean_motion_ddot": 0,
        "tle_line1": "1 32088U 99025CQE 25344.38914079  .00003447  00000+0  45517-2 0  9996",
        "tle_line2": "2 32088 102.3999 209.9224 0461487   2.0508 358.2365 13.25167395598139"
      },
      "geometry": {
        "type": "Point",
        "coordinates": [
          -144.27133223105017,
          -7.525345800530058
        ]
      }
    },
    {
      "type": "Feature",
      "properties": {
        "norad_id": 32089,
        "name": "FENGYUN 1C DEB",
        "group": "fengyun-1c-debris",
        "lat": 80.21313064641555,
        "lon": -68.60388084232864,
        "alt_km": 771.5462082904605,
        "timestamp": "2025-12-13T20:38:51.290433+00:00",
        "meta_object_name": "FENGYUN 1C DEB",
        "meta_object_id": "1999-025CQF",
        "meta_epoch": "2025-12-12T06:53:11.826816",
        "meta_mean_motion": 14.14067059,
        "meta_eccentricity": 0.01123779,
        "meta_inclination": 98.6547,
        "meta_ra_of_asc_node": 351.8762,
        "meta_arg_of_pericenter": 125.2996,
        "meta_mean_anomaly": 235.875,
        "meta_ephemeris_type": 0,
        "meta_classification_type": "U",
        "meta_norad_cat_id": 32089,
        "meta_element_set_no": 999,
        "meta_rev_at_epoch": 63209,
        "meta_bstar": 0.00077843034,
        "meta_mean_motion_dot": 1.532e-05,
        "meta_mean_motion_ddot": 0,
        "tle_line1": "1 32089U 99025CQF 25346.28694244  .00001532  00000+0  77843-3 0  9998",
        "tle_line2": "2 32089  98.6547 351.8762 0112377 125.2996 235.8750 14.14067059632097"
      },
      "geometry": {
        "type": "Point",
        "coordinates": [
          -68.60388084232864,
          80.21313064641555
        ]
      }
    },
    {
      "type": "Feature",
      "properties": {
        "norad_id": 32093,
        "name": "FENGYUN 1C DEB",
        "group": "fengyun-1c-debris",
        "lat": 77.19825644753733,
        "lon": 157.0139024870069,
        "alt_km": 759.1934164160721,
        "timestamp": "2025-12-13T20:38:51.290443+00:00",
        "meta_object_name": "FENGYUN 1C DEB",
        "meta_object_id": "1999-025CQK",
        "meta_epoch": "2025-12-12T00:50:48.937632",
        "meta_mean_motion": 14.37603697,
        "meta_eccentricity": 0.00794334,
        "meta_inclination": 98.9197,
        "meta_ra_of_asc_node": 198.8432,
        "meta_arg_of_pericenter": 355.6405,
        "meta_mean_anomaly": 4.4079,
        "meta_ephemeris_type": 0,
        "meta_classification_type": "U",
        "meta_norad_cat_id": 32093,
        "meta_element_set_no": 999,
        "meta_rev_at_epoch": 96507,
        "meta_bstar": 0.00063485421,
        "meta_mean_motion_dot": 1.927e-05,
        "meta_mean_motion_ddot": 0,
        "tle_line1": "1 32093U 99025CQK 25346.03528863  .00001927  00000+0  63485-3 0  9994",
        "tle_line2": "2 32093  98.9197 198.8432 0079433 355.6405   4.4079 14.37603697965078"
      },
      "geometry": {
        "type": "Point",
        "coordinates": [
          157.0139024870069,
          77.19825644753733
        ]
      }
    },
    {
      "type": "Feature",
      "properties": {
        "norad_id": 32094,
        "name": "FENGYUN 1C DEB",
        "group": "fengyun-1c-debris",
        "lat": 60.66500904083326,
        "lon": 174.13838875805783,
        "alt_km": 871.6933279816294,
        "timestamp": "2025-12-13T20:38:51.290453+00:00",
        "meta_object_name": "FENGYUN 1C DEB",
        "meta_object_id": "1999-025CQL",
        "meta_epoch": "2025-12-11T22:07:39.581760",
        "meta_mean_motion": 14.10725237,
        "meta_eccentricity": 0.0034065,
        "meta_inclination": 98.7447,
        "meta_ra_of_asc_node": 336.3568,
        "meta_arg_of_pericenter": 270.97,
        "meta_mean_anomaly": 88.7568,
        "meta_ephemeris_type": 0,
        "meta_classification_type": "U",
        "meta_norad_cat_id": 32094,
        "meta_element_set_no": 999,
        "meta_rev_at_epoch": 94353,
        "meta_bstar": 0.00058116,
        "meta_mean_motion_dot": 1.001e-05,
        "meta_mean_motion_ddot": 0,
        "tle_line1": "1 32094U 99025CQL 25345.92198590  .00001001  00000+0  58116-3 0  9990",
        "tle_line2": "2 32094  98.7447 336.3568 0034065 270.9700  88.7568 14.10725237943534"
      },
      "geometry": {
        "type": "Point",
        "coordinates": [
          174.13838875805783,
          60.66500904083326
        ]
      }
    },
    {
      "type": "Feature",
      "properties": {
        "norad_id": 32095,
        "name": "FENGYUN 1C DEB",
        "group": "fengyun-1c-debris",
        "lat": -48.21740604862954,
        "lon": 13.240345717516455,
        "alt_km": 887.6943833120458,
        "timestamp": "2025-12-13T20:38:51.290464+00:00",
        "meta_object_name": "FENGYUN 1C DEB",
        "meta_object_id": "1999-025CQM",
        "meta_epoch": "2025-12-12T19:26:32.834400",
        "meta_mean_motion": 14.16039687,
        "meta_eccentricity": 0.00791307,
        "meta_inclination": 98.6414,
        "meta_ra_of_asc_node": 2.4228,
        "meta_arg_of_pericenter": 91.9569,
        "meta_mean_anomaly": 269.067,
        "meta_ephemeris_type": 0,
        "meta_classification_type": "U",
        "meta_norad_cat_id": 32095,
        "meta_element_set_no": 999,
        "meta_rev_at_epoch": 94818,
        "meta_bstar": 0.0004066223,
        "meta_mean_motion_dot": 7.85e-06,
        "meta_mean_motion_ddot": 0,
        "tle_line1": "1 32095U 99025CQM 25346.81010225  .00000785  00000+0  40662-3 0  9993",
        "tle_line2": "2 32095  98.6414   2.4228 0079130  91.9569 269.0670 14.16039687948185"
      },
      "geometry": {
        "type": "Point",
        "coordinates": [
          13.240345717516455,
          -48.21740604862954
        ]
      }
    },
    {
      "type": "Feature",
      "properties": {
        "norad_id": 32096,
        "name": "FENGYUN 1C DEB",
        "group": "fengyun-1c-debris",
        "lat": -2.78046787176767,
        "lon": 17.27063876506649,
        "alt_km": 1005.4765280664615,
        "timestamp": "2025-12-13T20:38:51.290473+00:00",
        "meta_object_name": "FENGYUN 1C DEB",
        "meta_object_id": "1999-025CQN",
        "meta_epoch": "2025-12-11T13:23:11.364288",
        "meta_mean_motion": 13.90183528,
        "meta_eccentricity": 0.01345891,
        "meta_inclination": 99.0751,
        "meta_ra_of_asc_node": 14.5789,
        "meta_arg_of_pericenter": 143.12,
        "meta_mean_anomaly": 217.9308,
        "meta_ephemeris_type": 0,
        "meta_classification_type": "U",
        "meta_norad_cat_id": 32096,
        "meta_element_set_no": 999,
        "meta_rev_at_epoch": 92845,
        "meta_bstar": 0.0016952038,
        "meta_mean_motion_dot": 2.214e-05,
        "meta_mean_motion_ddot": 0,
        "tle_line1": "1 32096U 99025CQN 25345.55777042  .00002214  00000+0  16952-2 0  9994",
        "tle_line2": "2 32096  99.0751  14.5789 0134589 143.1200 217.9308 13.90183528928456"
      },
      "geometry": {
        "type": "Point",
        "coordinates": [
          17.27063876506649,
          -2.78046787176767
        ]
      }
    }
  ]
}